GLOBALSTAR M024         
1 25883U 99043A   25165.93326966 -.00000075  00000+0 -35616-3 0  9991
2 25883  52.0051  25.7079 0002179  88.8089 284.2377 11.10168902114616
GLOBALSTAR M027         
1 25884U 99043B   25165.78064636 -.00000089  00000+0 -96520-3 0  9994
2 25884  52.0204 103.9648 0021837 348.4174  11.6115 11.04371881140975
GLOBALSTAR M054         
1 25885U 99043C   25165.96007503  .00000092  00000+0  41682-2 0  9995
2 25885  52.0123 231.2432 0006163 172.3870 359.4720 11.39223816118796
GLOBALSTAR M053         
1 25886U 99043D   25165.52791170 -.00000082  00000+0 -38901-3 0  9990
2 25886  51.9943 179.2229 0002822  75.8100  90.4465 11.27665790119147
GLOBALSTAR M058         
1 25907U 99049A   25165.54450124 -.00000089  00000+0 -60924-4 0  9991
2 25907  51.9926 116.2303 0001868 272.4550  87.6071 11.93200322152438
GLOBALSTAR M050         
1 25908U 99049B   25165.59078591 -.00000163  00000+0 -84981-3 0  9992
2 25908  51.9969 123.9765 0009460  25.3977 145.9674 12.07455088147873
GLOBALSTAR M033         
1 25909U 99049C   25165.81085486 -.00000093  00000+0 -10932-4 0  9997
2 25909  51.9934 355.3691 0012805 257.3619 102.5797 12.20292935535457
GLOBALSTAR M055         
1 25910U 99049D   25165.81788409 -.00000065  00000+0  25147-3 0  9995
2 25910  52.0040   6.2133 0007719 122.7392 237.4205 12.29428742167991
